$$SOE
2461295.500000000, A.D. 2026-Sep-12 00:00:00.0000, -1.194780637368683E+08, 2.927375806085145E+08, 1.327017056059849E+07,
2461302.500000000, A.D. 2026-Sep-19 00:00:00.0000, -1.317536853406337E+08, 2.880994204344537E+08, 1.387530034523660E+07,
2461309.500000000, A.D. 2026-Sep-26 00:00:00.0000, -1.438288828637480E+08, 2.830227768567153E+08, 1.445930796584207E+07,
2461316.500000000, A.D. 2026-Oct-03 00:00:00.0000, -1.556867232068978E+08, 2.775182198419790E+08, 1.502144953110497E+07,
2461323.500000000, A.D. 2026-Oct-10 00:00:00.0000, -1.673109547950020E+08, 2.715970620230764E+08, 1.556103662863491E+07,
2461330.500000000, A.D. 2026-Oct-17 00:00:00.0000, -1.786860433920174E+08, 2.652713041671872E+08, 1.607743719972874E+07,
2461337.500000000, A.D. 2026-Oct-24 00:00:00.0000, -1.897972028581451E+08, 2.585535789053075E+08, 1.657007607870165E+07,
2461344.500000000, A.D. 2026-Oct-31 00:00:00.0000, -2.006304207362263E+08, 2.514570931897652E+08, 1.703843519313177E+07,
2461351.500000000, A.D. 2026-Nov-07 00:00:00.0000, -2.111724783734245E+08, 2.439955700699811E+08, 1.748205341394755E+07,
2461358.500000000, A.D. 2026-Nov-14 00:00:00.0000, -2.214109654784926E+08, 2.361831911656528E+08, 1.790052612615147E+07,
2461365.500000000, A.D. 2026-Nov-21 00:00:00.0000, -2.313342910808658E+08, 2.280345409837199E+08, 1.829350476105277E+07,
2461372.500000000, A.D. 2026-Nov-28 00:00:00.0000, -2.409316920861129E+08, 2.195645505062805E+08, 1.866069615645057E+07,
2461379.500000000, A.D. 2026-Dec-05 00:00:00.0000, -2.501932360311015E+08, 2.107884397813076E+08, 1.900186138126911E+07,
2461386.500000000, A.D. 2026-Dec-12 00:00:00.0000, -2.591098181371684E+08, 2.017216629665929E+08, 1.931681428697307E+07,
2461393.500000000, A.D. 2026-Dec-19 00:00:00.0000, -2.676731548463491E+08, 1.923798561444510E+08, 1.960541998303445E+07,
2461400.500000000, A.D. 2026-Dec-26 00:00:00.0000, -2.758757742895140E+08, 1.827787873103791E+08, 1.986759320221102E+07,
2461407.500000000, A.D. 2027-Jan-02 00:00:00.0000, -2.837110037228642E+08, 1.729343085671725E+08, 2.010329653789956E+07,
2461414.500000000, A.D. 2027-Jan-09 00:00:00.0000, -2.911729541319898E+08, 1.628623107208293E+08, 2.031253856671430E+07,
2461421.500000000, A.D. 2027-Jan-16 00:00:00.0000, -2.982565022853518E+08, 1.525786804171670E+08, 2.049537187496807E+07,
2461428.500000000, A.D. 2027-Jan-23 00:00:00.0000, -3.049572705113532E+08, 1.420992598667334E+08, 2.065189100208236E+07,
2461435.500000000, A.D. 2027-Jan-30 00:00:00.0000, -3.112716043344676E+08, 1.314398091638898E+08, 2.078223029980671E+07,
2461442.500000000, A.D. 2027-Feb-06 00:00:00.0000, -3.171965478636855E+08, 1.206159715688124E+08, 2.088656171521372E+07,
2461449.500000000, A.D. 2027-Feb-13 00:00:00.0000, -3.227298176953602E+08, 1.096432429769282E+08, 2.096509265685463E+07,
2461456.500000000, A.D. 2027-Feb-20 00:00:00.0000, -3.278697779764724E+08, 9.853694476403739E+07, 2.101806411163839E+07,
2461463.500000000, A.D. 2027-Feb-27 00:00:00.0000, -3.326154154929725E+08, 8.731219675043979E+07, 2.104574863526597E+07,
2461470.500000000, A.D. 2027-Mar-06 00:00:00.0000, -3.369663119946302E+08, 7.598389214020170E+07, 2.104844810807871E+07,
2461477.500000000, A.D. 2027-Mar-13 00:00:00.0000, -3.409226155638852E+08, 6.456667639086856E+07, 2.102649157999995E+07,
2461484.500000000, A.D. 2027-Mar-20 00:00:00.0000, -3.444850123574988E+08, 5.307492906929742E+07, 2.098023324806295E+07,
2461491.500000000, A.D. 2027-Mar-27 00:00:00.0000, -3.476546987025908E+08, 4.152274802876588E+07, 2.091005051070026E+07,
2461498.500000000, A.D. 2027-Apr-03 00:00:00.0000, -3.504333535070704E+08, 2.992393573618796E+07, 2.081634208319784E+07,
2461505.500000000, A.D. 2027-Apr-10 00:00:00.0000, -3.528231110681555E+08, 1.829198764349805E+07, 2.069952617663071E+07,
2461512.500000000, A.D. 2027-Apr-17 00:00:00.0000, -3.548265343843623E+08, 6.640082457893725E+06, 2.056003874206502E+07,
2461519.500000000, A.D. 2027-Apr-24 00:00:00.0000, -3.564465890008983E+08, -5.018925882549729E+06, 2.039833177141386E+07,
2461526.500000000, A.D. 2027-May-01 00:00:00.0000, -3.576866171797723E+08, -1.667251463115161E+07, 2.021487163221764E+07,
2461533.500000000, A.D. 2027-May-08 00:00:00.0000, -3.585503121609094E+08, -2.830849643472427E+07, 2.001013747066858E+07,
2461540.500000000, A.D. 2027-May-15 00:00:00.0000, -3.590416940696563E+08, -3.991502049149372E+07, 1.978461989846374E+07,
2461547.500000000, A.D. 2027-May-22 00:00:00.0000, -3.591650890826638E+08, -5.148057338420723E+07, 1.953881989481736E+07,
2461554.500000000, A.D. 2027-May-29 00:00:00.0000, -3.589251085356736E+08, -6.299398117859007E+07, 1.927324749535516E+07,
2461561.500000000, A.D. 2027-Jun-05 00:00:00.0000, -3.583266271126431E+08, -7.444440976937953E+07, 1.898842044186707E+07,
2461568.500000000, A.D. 2027-Jun-12 00:00:00.0000, -3.573747621340746E+08, -8.582136315313347E+07, 1.868486301070929E+07,
2461575.500000000, A.D. 2027-Jun-19 00:00:00.0000, -3.560748542813456E+08, -9.711468067159882E+07, 1.836310497167958E+07,
2461582.500000000, A.D. 2027-Jun-26 00:00:00.0000, -3.544324494802114E+08, -1.083145335886157E+08, 1.802368062831141E+07,
2461589.500000000, A.D. 2027-Jul-03 00:00:00.0000, -3.524532818068685E+08, -1.194114210856059E+08, 1.766712792608218E+07,
2461596.500000000, A.D. 2027-Jul-10 00:00:00.0000, -3.501432573679370E+08, -1.303961657538816E+08, 1.729398762358833E+07,
2461603.500000000, A.D. 2027-Jul-17 00:00:00.0000, -3.475084391009935E+08, -1.412599087040440E+08, 1.690480251769487E+07,
2461610.500000000, A.D. 2027-Jul-24 00:00:00.0000, -3.445550323184487E+08, -1.519941044309660E+08, 1.650011670057222E+07,
2461617.500000000, A.D. 2027-Jul-31 00:00:00.0000, -3.412893705593811E+08, -1.625905152686139E+08, 1.608047482745900E+07,
2461624.500000000, A.D. 2027-Aug-07 00:00:00.0000, -3.377179019229295E+08, -1.730412043468914E+08, 1.564642150490569E+07,
2461631.500000000, A.D. 2027-Aug-14 00:00:00.0000, -3.338471781546019E+08, -1.833385273630083E+08, 1.519850098688494E+07,
2461638.500000000, A.D. 2027-Aug-21 00:00:00.0000, -3.296838458379959E+08, -1.934751265875200E+08, 1.473725684412526E+07,
2461645.500000000, A.D. 2027-Aug-28 00:00:00.0000, -3.252346362331051E+08, -2.034439259524385E+08, 1.426323138759679E+07,
2461652.500000000, A.D. 2027-Sep-04 00:00:00.0000, -3.205063549121698E+08, -2.132381247622525E+08, 1.377696515634196E+07,
2461659.500000000, A.D. 2027-Sep-11 00:00:00.0000, -3.155058725551277E+08, -2.228511907274323E+08, 1.327899654068746E+07,
2461666.500000000, A.D. 2027-Sep-18 00:00:00.0000, -3.102401167383674E+08, -2.322768530062603E+08, 1.276986147241905E+07,
2461673.500000000, A.D. 2027-Sep-25 00:00:00.0000, -3.047160644567629E+08, -2.415090953644278E+08, 1.225009315167785E+07,
2461680.500000000, A.D. 2027-Oct-02 00:00:00.0000, -2.989407352728223E+08, -2.505421494508077E+08, 1.172022180330250E+07,
2461687.500000000, A.D. 2027-Oct-09 00:00:00.0000, -2.929211850368748E+08, -2.593704882153111E+08, 1.118077445761262E+07,
2461694.500000000, A.D. 2027-Oct-16 00:00:00.0000, -2.866645000797799E+08, -2.679888195441698E+08, 1.063227474274193E+07,
2461701.500000000, A.D. 2027-Oct-23 00:00:00.0000, -2.801777915848216E+08, -2.763920801399488E+08, 1.007524266169992E+07,
2461708.500000000, A.D. 2027-Oct-30 00:00:00.0000, -2.734681897352080E+08, -2.845754290571795E+08, 9.510194367432982E+06,
2461715.500000000, A.D. 2027-Nov-06 00:00:00.0000, -2.665428387752980E+08, -2.925342397830393E+08, 8.937642132812381E+06,
2461722.500000000, A.D. 2027-Nov-13 00:00:00.0000, -2.594088949464259E+08, -3.002640929527514E+08, 8.358094526074871E+06,
2461729.500000000, A.D. 2027-Nov-20 00:00:00.0000, -2.520735243717347E+08, -3.077607718972940E+08, 7.772056345183179E+06,
2461736.500000000, A.D. 2027-Nov-27 00:00:00.0000, -2.445438992498109E+08, -3.150202580683196E+08, 7.180028403583124E+06,
2461743.500000000, A.D. 2027-Dec-04 00:00:00.0000, -2.368271943573477E+08, -3.220387254322919E+08, 6.582507426323533E+06,
2461750.500000000, A.D. 2027-Dec-11 00:00:00.0000, -2.289305843873763E+08, -3.288125348019159E+08, 5.979986026878864E+06,
2461757.500000000, A.D. 2027-Dec-18 00:00:00.0000, -2.208612418243578E+08, -3.353382284478912E+08, 5.372952710309625E+06,
2461764.500000000, A.D. 2027-Dec-25 00:00:00.0000, -2.126263351818946E+08, -3.416125249976731E+08, 4.761891887256220E+06,
2461771.500000000, A.D. 2028-Jan-01 00:00:00.0000, -2.042330275416822E+08, -3.476323146111702E+08, 4.147283894992217E+06,
$$EOE